STARLINK-31630          
1 59271U 24050T   26068.56880718 -.00002063  00000+0 -57526-4 0  9991
2 59271  53.1600 168.5079 0001409  92.3163 267.7999 15.30200807110710
STARLINK-35123          
1 65634U 25210N   26068.91686090  .00038340  00000+0  13000-2 0  9998
2 65634  53.1606 306.1779 0000752 130.4515 229.6551 15.30197912 27763
